{
    "links": {
        "self": "http://www.neowsapp.com/rest/v1/neo/3709136?api_key=iIulBulltgU6a56xZRHN4H3l9WmuAYTsLGpBGhQ2"
    },
    "id": "3709136",
    "neo_reference_id": "3709136",
    "name": "(2015 BE511)",
    "designation": "2015 BE511",
    "nasa_jpl_url": "http://ssd.jpl.nasa.gov/sbdb.cgi?sstr=3709136",
    "absolute_magnitude_h": 28.6,
    "estimated_diameter": {
        "kilometers": {
            "estimated_diameter_min": 0.0050647146,
            "estimated_diameter_max": 0.0113250461
        },
        "meters": {
            "estimated_diameter_min": 5.0647145883,
            "estimated_diameter_max": 11.3250461062
        },
        "miles": {
            "estimated_diameter_min": 0.0031470668,
            "estimated_diameter_max": 0.0070370552
        },
        "feet": {
            "estimated_diameter_min": 16.61651821,
            "estimated_diameter_max": 37.155664267
        }
    },
    "is_potentially_hazardous_asteroid": false,
    "close_approach_data": [
        {
            "close_approach_date": "2015-01-20",
            "close_approach_date_full": "2015-Jan-20 07:54",
            "epoch_date_close_approach": 1421740440000,
            "relative_velocity": {
                "kilometers_per_second": "10.2892851912",
                "kilometers_per_hour": "37041.4266884636",
                "miles_per_hour": "23016.1020442845"
            },
            "miss_distance": {
                "astronomical": "0.0030094096",
                "lunar": "1.1706603344",
                "kilometers": "450201.266117552",
                "miles": "279742.0949521376"
            },
            "orbiting_body": "Moon"
        },
        {
            "close_approach_date": "2015-01-20",
            "close_approach_date_full": "2015-Jan-20 13:06",
            "epoch_date_close_approach": 1421759160000,
            "relative_velocity": {
                "kilometers_per_second": "9.4641400924",
                "kilometers_per_hour": "34070.9043328094",
                "miles_per_hour": "21170.3349727948"
            },
            "miss_distance": {
                "astronomical": "0.0010795604",
                "lunar": "0.4199489956",
                "kilometers": "161499.936376348",
                "miles": "100351.4071076824"
            },
            "orbiting_body": "Earth"
        }
    ],
    "orbital_data": {
        "orbit_id": "4",
        "orbit_determination_date": "2017-04-06 08:35:59",
        "first_observation_date": "2015-01-21",
        "last_observation_date": "2015-01-28",
        "data_arc_in_days": 7,
        "observations_used": 15,
        "orbit_uncertainty": "7",
        "minimum_orbit_intersection": ".000835387",
        "jupiter_tisserand_invariant": "3.096",
        "epoch_osculation": "2459000.5",
        "eccentricity": ".6303962109498685",
        "semi_major_axis": "2.604734590998544",
        "inclination": ".3631878040097673",
        "ascending_node_longitude": "126.192451791082",
        "orbital_period": "1535.478158438026",
        "perihelion_distance": ".9627197743030064",
        "perihelion_argument": "332.8105566299156",
        "aphelion_distance": "4.246749407694081",
        "perihelion_time": "2458560.149033129309",
        "mean_anomaly": "103.2423334726629",
        "mean_motion": ".2344546537648",
        "equinox": "J2000",
        "orbit_class": {
            "orbit_class_type": "APO",
            "orbit_class_description": "Near-Earth asteroid orbits which cross the Earth’s orbit similar to that of 1862 Apollo",
            "orbit_class_range": "a (semi-major axis) > 1.0 AU; q (perihelion) < 1.017 AU"
        }
    },
    "is_sentry_object": false
}